#dP2024  9 21 12  0  0.00000000      96 __u+U IGS20 EXT  IAC
## 2332 561600.00000000   900.00000000 60574 0.5000000000000
+   53   G02G03G04G05G06G07G08G09G10G11G12G13G14G15G16G17G18
+        G19G20G21G22G23G24G25G26G27G28G29G30G31G32R01R02R03
+        R04R05R07R08R09R11R12R14R15R16R17R18R19R20R21R22R24
+        R25R26  0  0  0  0  0  0  0  0  0  0  0  0  0  0  0
+          0  0  0  0  0  0  0  0  0  0  0  0  0  0  0  0  0
++         8  8  6  8  8  7  7  7  7  9  7  7  8  7  7  9  7
++         7  7  7  6  7  7  7  8  7  8  7  9  8  7  8  8  7
++         8  9 10  7  7  8  8  8 10  7  8  9  9  8  8  8  7
++         7  9  0  0  0  0  0  0  0  0  0  0  0  0  0  0  0
++         0  0  0  0  0  0  0  0  0  0  0  0  0  0  0  0  0
%c M  cc GPS ccc cccc cccc cccc cccc ccccc ccccc ccccc ccccc
%c cc cc ccc ccc cccc cccc cccc cccc ccccc ccccc ccccc ccccc
%f  0.0000000  0.000000000  0.00000000000  0.000000000000000
%f  0.0000000  0.000000000  0.00000000000  0.000000000000000
%i    0    0    0    0      0      0      0      0         0
%i    0    0    0    0      0      0      0      0         0
/* IAC                                ULTRA-RAPID PREDICTION
/* S/V CLOCKS ARE ALIGNED TO GNSS TIME                      
/* G:C1WC2W R:C1PC2P E:C1XC5X C:C2IC6I J:C1CC2S             
/* PCV:IGS20_2317 OL/AL:FES2004  NONE     YN ORB:CoN CLK:CoN
*  2024 09 21 18 30  0.00000000
PG02 -15864.423626    -99.337010  21817.046574   -353.267510
PG03 -21731.414084  11018.071043  10270.934535    545.572384
PG04 -23605.215499    983.091517 -12266.312143    447.912013
PG05  16464.259329   3293.777502 -20779.635755   -187.343136
PG06   4854.092575  26024.583551   1303.550561     15.111023
PG07  -8311.757170  17834.105881 -17093.763704    -35.249708
PG08 -26061.674627  -6177.441096    812.488019    360.149485
PG09 -15829.201136   9615.673755 -19150.976698    366.194145
PG10   5308.631370 -20069.242230  16579.438081   -132.755433
PG11  12598.765934  19687.168026 -12649.053831   -737.016380
PG12  22149.893805  -6748.570328  12689.090817   -539.721150
PG13  21999.951830  14207.153191  -5367.326506    677.682924
PG14  -9024.646935  21068.705463  13270.500136    500.698892
PG15  26440.057636   3159.580660    559.516852    206.920367
PG16 -13441.509984  -8618.253786 -21621.147219   -174.934179
PG17    624.133341  16053.329048  21540.465681    619.913551
PG18   7894.639835 -18525.062816 -17179.043735   -654.594698
PG19  10273.396015  17308.502487  17392.591102    540.992755
PG20   8948.080990  13148.884467 -21221.803420    370.408551
PG21 -17037.100709  -7218.715015  19823.092080    101.303400
PG22  -2282.983852  18826.605381  19124.774703    -64.066492
PG23  15774.182484 -20595.305538   5138.631806    325.187345
PG24  16637.430051   2490.640657  20190.622705   -486.453408
PG25  19951.860061 -17082.870492   2490.182797    499.627958
PG26  -3840.415454 -17580.750594 -19581.557668     73.731151
PG27 -21492.146947 -13093.292473  -9427.351709    -33.899771
PG28  -4463.736877 -25937.918848   3550.708981   -419.410439
PG29  18580.329444  -6145.428331 -18058.897563   -576.371889
PG30  -1197.962723  24636.081951  -9339.262256   -317.000467
PG31 -11147.005513 -22306.623489  -8799.717738   -224.412609
PG32  -3182.229127 -16185.957901  21072.687821   -594.924549
PR01 -17985.660390   9267.300953 -15534.654702     98.532735
PR02  -1241.938724  10811.303830 -23035.201606    -24.771730
PR03  17018.074722   6999.230052 -17593.119298    108.000124
PR04  25344.070235   -333.791453  -2753.262868    255.762364
PR05  20229.063470  -7507.487658  13585.647349    137.998810
PR07 -17537.036010  -6832.911366  17279.935182     91.354382
PR08 -25392.806534    613.840729   2621.311027     -6.408487
PR09   5445.772028 -23314.355159  -8899.636919    210.417664
PR11 -12652.143726   2400.374174 -22002.644359     11.248915
PR12 -13925.771544  19465.303041  -8812.665833     45.106699
PR14   5128.592150  13334.377711  21141.441556     26.950840
PR15  13327.210482  -4057.721856  21391.760780     75.637677
PR16  13868.917884 -19420.633172   9073.119420     29.325394
PR17  15526.888949  19882.912254  -3947.185864    124.027246
PR18  15567.369270   8799.988689 -18154.045367    163.169965
PR19   9197.853662  -4910.017174 -23276.418224   -292.200930
PR20  -5177.865622 -20647.312798 -14065.607842   -119.439691
PR21 -15106.861956 -20272.604636   3238.200147   -136.391375
PR22 -15380.258941  -7899.849579  18784.139303     41.299529
PR24   6228.833316  20722.344321  13550.731892    -72.949399
PR25 -14909.136089 -20222.768405   4331.101302    -98.555240
PR26 -25161.413464     40.917700   4149.587426     36.356745
*  2024 09 21 18 45  0.00000000
PG02 -16635.101477  -2320.460004  21121.885922   -353.260270
PG03 -20901.073761   9951.982022  12753.034723    545.584123
PG04 -24753.260299    428.489725  -9801.947552    447.918365
PG05  14912.787629   5099.765380 -21572.137984   -187.344315
PG06   4605.597617  25770.609607   4199.952284     15.087302
PG07  -9061.467307  15799.903168 -18640.461829    -35.245897
PG08 -25953.429122  -6408.454518  -1997.377147    360.160876
PG09 -17828.217650   9004.728520 -17628.655430    366.208659
PG10   6646.867272 -21207.744822  14494.788433   -132.766740
PG11  12688.073107  21008.623738 -10210.714097   -737.019939
PG12  21066.685560  -5523.590259  14890.935009   -539.723661
PG13  21246.187698  14096.557307  -8093.793625    677.684727
PG14 -10206.370417  21844.201301  10927.282622    500.706569
PG15  26367.999589   3465.414011  -2235.021067    206.924274
PG16 -11604.781206 -10190.830417 -21964.282895   -174.924990
PG17  -1672.610853  15342.065666  22022.397464    619.903075
PG18   8531.246426 -16552.238308 -18828.086552   -654.596529
PG19   8276.371829  16673.958569  18954.248682    540.997145
PG20   7534.809361  15089.251995 -20482.405918    370.408212
PG21 -17704.995781  -9190.065264  18433.574791    101.302723
PG22  -3899.175851  20035.462519  17562.714761    -64.069793
PG23  16217.938271 -20758.386058   2271.682811    325.194877
PG24  17372.945265   4716.869302  19207.901361   -486.452973
PG25  19836.897528 -16519.256051   5291.914723    499.627967
PG26  -2323.730504 -19124.761033 -18286.914201     73.723320
PG27 -20313.025616 -12988.741759 -11898.437167    -33.899824
PG28  -4062.006621 -25468.022144   6333.950976   -419.422744
PG29  20379.510050  -5378.882006 -16281.753118   -576.369657
PG30  -1819.435836  23518.750808 -11786.595607   -316.993984
PG31 -11076.525121 -23184.614426  -6109.423018   -224.412129
PG32   -846.994455 -15640.617892  21687.078322   -594.921122
PR01 -19714.757623   9620.688438 -13016.047655     98.533814
PR02  -4050.525540  11109.658043 -22572.587667    -24.771932
PR03  14721.096245   7152.611353 -19501.132385    108.001012
PR04  24790.680270   -456.523965  -5924.478413    255.763968
PR05  21717.204912  -7799.361909  10844.562039    137.999318
PR07 -15293.014634  -6966.669350  19245.302711     91.355075
PR08 -24866.947601    723.434101   5784.557226     -6.408482
PR09   5700.624798 -24195.968469  -5891.822750    210.419591
PR11 -11533.193674   -127.149458 -22737.062228     11.247992
PR12 -13309.749328  18350.537735 -11679.869445     45.107071
PR14   4192.982363  15670.243757  19693.092542     26.950869
PR15  12213.713897  -1605.022118  22359.484177     75.637113
PR16  13228.269357 -18288.418478  11932.387378     29.325701
PR17  15851.973087  20006.585021   -735.745610    124.030349
PR18  16891.598416  10451.806934 -15961.440184    163.171643
PR19  10782.934941  -2530.322418 -22975.783908   -292.202231
PR20  -4284.256244 -18972.736254 -16507.849822   -119.440711
PR21 -15383.940147 -20321.957159      6.758907   -136.394297
PR22 -16672.563807  -9665.871833  16742.100671     41.290991
PR24   5259.942093  19177.281212  16013.371524    -72.950815
PR25 -15215.179039 -20423.896852   1140.421701    -98.552755
PR26 -24444.755209    120.265649   7270.615084     36.372106
EOF
